TRANSPORTER-12 OBJECT BT
1 62674U 25009BT  26068.71416991  .00013824  00000+0  51029-3 0  9998
2 62674  97.4094 151.5992 0003682 313.5044  46.5889 15.27872239121360
STARLINK-35835          
1 66569U 25268N   26068.16239991  .00031901  00000+0  11639-2 0  9992
2 66569  43.0030 349.6479 0001326 299.2565  60.8154 15.27575703 17886
